STARLINK-1265           
1 45406C 20019AY  23014.92270833 -.00006394  00000-0 -42867-3 0   147
2 45406  53.0533 258.1224 0001286  92.8513 294.6565 15.06385353    16
STARLINK-1275           
1 45407C 20019AZ  23014.90951389 -.00010949  00000-0 -73390-3 0   144
2 45407  53.0524 258.1865 0001306  92.3183 148.7242 15.06395773    17
STARLINK-1278           
1 45408C 20019BA  23014.92548611 -.00014742  00000-0 -98808-3 0   143
2 45408  53.0514 288.1190 0001323  91.1457 166.4214 15.06399136    14
STARLINK-1282           
1 45409C 20019BB  23014.91645833 -.00009924  00000-0 -66515-3 0   143
2 45409  53.0521 258.1536 0001224  91.2496 142.3479 15.06395284    14
STARLINK-1293           
1 45411C 20019BD  23014.91576389 -.00018567  00000-0 -12444-2 0   149
2 45411  53.0542 258.1545 0001203  89.0280  60.7884 15.06405103    18
STARLINK-1296           
1 45412C 20019BE  23014.92618056 -.00011748  00000-0 -78745-3 0   140
2 45412  53.0534 258.0978 0001418  88.4334 297.9182 15.06396984    11
STARLINK-1298           
1 45413C 20019BF  23014.89562500 -.00014806  00000-0 -99252-3 0   143
2 45413  53.0540 258.2357 0001358  99.2973 321.2671 15.06396089    14
STARLINK-1309           
1 45414C 20019BG  23014.91368056  .00001891  00000-0  12672-3 0   146
2 45414  53.0500 258.1762 0001487  87.9720 150.5388 15.06386433    17
STARLINK-1316           
1 45415C 20019BH  23014.90812500 -.00014449  00000-0 -96846-3 0   144
2 45415  53.0531 258.1980 0001325 101.5942 326.7786 15.06399367    13
STARLINK-1318           
1 45416C 20019BJ  23014.90673611 -.00005992  00000-0 -40157-3 0   140
2 45416  53.0527 258.1881 0001368  80.2020 160.6104 15.06396708    11
STARLINK-1286           
1 45417C 20019BK  23014.92826389 -.00045947  00000-0 -30791-2 0   141
2 45417  53.0538 288.0998 0001272  94.5896 238.0417 15.06437664    12
STARLINK-1308           
1 45419C 20019BM  23014.92756944 -.00038625  00000-0 -25886-2 0   146
2 45419  53.0521 288.1021 0001446 102.2032 246.6736 15.06427295    14
STARLINK-1329           
1 45531C 20025A   23014.90256944 -.00004799  00000-0 -32159-3 0   148
2 45531  53.0522 228.2249 0001416  81.6956 301.5071 15.06399288    12
STARLINK-1338           
1 45532C 20025B   23014.92826389  .00008979  00000-0  60178-3 0   141
2 45532  53.0493 228.1030 0001226 100.5135   2.1256 15.06381054    17
STARLINK-1341           
1 45534C 20025D   23014.92687500  .00004240  00000-0  28418-3 0   141
2 45534  53.0529 228.1029 0001501  69.6044 325.5140 15.06384787    17
STARLINK-1350           
1 45535C 20025E   23014.92340278  .00006274  00000-0  42049-3 0   145
2 45535  53.0531 228.1307 0001606  98.5178 177.7534 15.06383482    10
STARLINK-1352           
1 45536C 20025F   23014.92479167  .00004291  00000-0  28760-3 0   147
2 45536  53.0520 228.1174 0001315  92.3124 171.4925 15.06382361    11
STARLINK-1362           
1 45538C 20025H   23014.90881944  .00001475  00000-0  98859-4 0   145
2 45538  53.0517 228.1893 0001428  77.9550 319.1870 15.06384660    18
STARLINK-1368           
1 45540C 20025K   23014.88034722 -.00000352  00000-0 -23589-4 0   142
2 45540  53.0516 228.3256 0001378  95.1158 267.5351 15.06388964    16
STARLINK-1369           
1 45541C 20025L   23014.88729167 -.00004992  00000-0 -33458-3 0   146
2 45541  53.0524 228.2948 0001732  62.4681 317.8695 15.06389153    16
STARLINK-1371           
1 45542C 20025M   23014.89493056 -.00001953  00000-0 -13088-3 0   144
2 45542  53.0520 228.2571 0001434  85.7592 156.0247 15.06391243    12
STARLINK-1372           
1 45543C 20025N   23014.88868056 -.00000454  00000-0 -30451-4 0   149
2 45543  53.0515 228.2788 0001358  97.7319 270.1341 15.06389422    11
STARLINK-1373           
1 45544C 20025P   23014.88868056 -.00000202  00000-0 -13558-4 0   140
2 45544  53.0521 228.2852 0001488  93.7398 174.1270 15.06388572    17
STARLINK-1374           
1 45545C 20025Q   23014.90465278 -.00003013  00000-0 -20192-3 0   147
2 45545  53.0503 228.2092 0001365  87.7154 166.8176 15.06389116    19
STARLINK-1375           
1 45546C 20025R   23014.86993056  .00001510  00000-0  10121-3 0   142
2 45546  53.0523 228.3582 0001277  86.6709 279.4581 15.06385487    11
STARLINK-1377           
1 45547C 20025S   23014.87201389  .00005487  00000-0  36762-3 0   141
2 45547  53.0516 228.3607 0001091  81.1766 316.2302 15.06394326    12
STARLINK-1378           
1 45548C 20025T   23014.89909722  .00001866  00000-0  12506-3 0   147
2 45548  53.0522 228.2295 0001494  80.5439 323.8440 15.06385951    10
STARLINK-1390           
1 45550C 20025V   23014.88937500  .00016216  00000-0  10876-2 0   146
2 45550  53.0532 228.2661 0001417  81.2843 175.4781 15.06344925    18
STARLINK-1294           
1 45551C 20025W   23014.92548611  .00007590  00000-0  50878-3 0   145
2 45551  53.0522 208.1264 0001251  75.1133   2.5106 15.06374361    12
STARLINK-1323           
1 45553C 20025Y   23014.91020833  .00010972  00000-0  73529-3 0   143
2 45553  53.0530 208.1846 0001441  94.6885 199.9573 15.06381227    18
STARLINK-1325           
1 45554C 20025Z   23014.92270833  .00005647  00000-0  37846-3 0   147
2 45554  53.0519 208.1206 0001689  82.2607 325.3911 15.06381775    14
STARLINK-1327           
1 45555C 20025AA  23014.89979167  .00010524  00000-0  70492-3 0   144
2 45555  53.0505 208.2305 0001479 103.8745  14.2159 15.06398825    13
STARLINK-1334           
1 45556C 20025AB  23014.92965278  .00006690  00000-0  44834-3 0   147
2 45556  53.0517 208.0899 0001233  86.9954 333.1864 15.06384761    14
STARLINK-1336           
1 45557C 20025AC  23014.91229167  .00009820  00000-0  65802-3 0   143
2 45557  53.0524 208.1651 0001383  91.3642 194.6076 15.06385733    15
STARLINK-1342           
1 45558C 20025AD  23014.92201389  .00007432  00000-0  49807-3 0   145
2 45558  53.0514 208.1308 0001112  91.9253  66.8273 15.06385041    19
STARLINK-1344           
1 45559C 20025AE  23014.92479167  .00006021  00000-0  40353-3 0   147
2 45559  53.0529 208.0588 0001407  80.5945 278.3807 15.06382434    10
STARLINK-1346           
1 45560C 20025AF  23014.92340278  .00010768  00000-0  72162-3 0   145
2 45560  53.0517 198.1183 0001519  84.2014 322.2213 15.06379644    10
STARLINK-1354           
1 45562C 20025AH  23014.92340278  .00004945  00000-0  33137-3 0   146
2 45562  53.0538 208.1121 0001365  90.3435 195.9231 15.06390709    13
STARLINK-1355           
1 45563C 20025AJ  23014.90743056  .00001708  00000-0  11443-3 0   146
2 45563  53.0542 208.1876 0001374  91.1389  28.4638 15.06394241    19
STARLINK-1356           
1 45564C 20025AK  23014.90326389  .00007553  00000-0  50611-3 0   147
2 45564  53.0511 208.2148 0001494  88.7835  28.2112 15.06388802    11
STARLINK-1357           
1 45565C 20025AL  23014.90118056  .00012209  00000-0  81759-3 0   149
2 45565  53.0536 208.2277 0001353  83.0115  62.5705 15.06406206    13
STARLINK-1358           
1 45566C 20025AM  23014.90534722  .00010349  00000-0  69354-3 0   142
2 45566  53.0522 208.2032 0001321  85.1608   3.0454 15.06380147    19
STARLINK-1361           
1 45567C 20025AN  23014.90604167  .00005811  00000-0  38943-3 0   142
2 45567  53.0532 208.1914 0001248  91.9967 300.0904 15.06383483    16
STARLINK-1363           
1 45568C 20025AP  23014.89840278  .00001597  00000-0  10700-3 0   144
2 45568  53.0516 208.4871 0001404  77.5303 192.9376 15.06387484    18
STARLINK-1366           
1 45569C 20025AQ  23014.89284722  .00004425  00000-0  29653-3 0   141
2 45569  53.0518 208.2705 0002022  45.0177 255.4726 15.06384667    15
STARLINK-1376           
1 45570C 20025AR  23014.90048611  .00003311  00000-0  22193-3 0   145
2 45570  53.0534 208.2211 0001229  90.7065 291.2345 15.06386444    18
STARLINK-1261           
1 45571C 20025AS  23014.91784722  .00009888  00000-0  66266-3 0   141
2 45571  53.0538 198.1392 0001339  83.2084 307.9404 15.06380362    14
STARLINK-1320           
1 45572C 20025AT  23014.92340278  .00013476  00000-0  90296-3 0   145
2 45572  53.0526 198.1234 0001487  85.9631  15.3072 15.06383814    14
STARLINK-1321           
1 45573C 20025AU  23014.91159722  .00012380  00000-0  82914-3 0   148
2 45573  53.0517 198.1769 0001199  91.2483  65.9802 15.06401951    18
STARLINK-1324           
1 45574C 20025AV  23014.92618056  .00011670  00000-0  78205-3 0   149
2 45574  53.0538 198.1043 0001118  92.1600   4.2058 15.06380294    14
STARLINK-1328           
1 45576C 20025AX  23014.92340278  .00008613  00000-0  57727-3 0   148
2 45576  53.0520 198.1334 0001383  78.5374 222.7526 15.06378445    12
STARLINK-1331           
1 45578C 20025AZ  23014.92687500  .00010938  00000-0  73298-3 0   146
2 45578  53.0530 198.1146 0001295  78.4086 281.7168 15.06381368    12
STARLINK-1332           
1 45579C 20025BA  23014.89770833  .00027024  00000-0  18114-2 0   144
2 45579  53.0535 158.3972 0001140  79.4518  82.3304 15.06357619    12
STARLINK-1333           
1 45580C 20025BB  23014.93034722  .00012131  00000-0  81262-3 0   149
2 45580  53.0532 208.0853 0001335  87.2779 256.5542 15.06393505    17
STARLINK-1335           
1 45581C 20025BC  23014.92479167  .00005220  00000-0  34986-3 0   147
2 45581  53.0530 198.1166 0001138  91.7174 197.1159 15.06381124    10
STARLINK-1337           
1 45582C 20025BD  23014.92062500  .00010575  00000-0  70871-3 0   149
2 45582  53.0502 198.1368 0001163  86.6912  59.5336 15.06380665    12
STARLINK-1340           
1 45583C 20025BE  23014.89909722  .00009954  00000-0  66703-3 0   140
2 45583  53.0517 198.2414 0001023  94.5509  34.8489 15.06383550    18
STARLINK-1343           
1 45584C 20025BF  23014.92548611  .00005274  00000-0  35346-3 0   141
2 45584  53.0521 198.1104 0001456  86.1245 251.6054 15.06382888    13
STARLINK-1347           
1 45586C 20025BH  23014.91576389  .00011279  00000-0  75582-3 0   143
2 45586  53.0490 198.1609 0001227  92.1529  67.6767 15.06383034    18
